{
  "type": "FeatureCollection",
  "features": [
    {
      "type": "Feature",
      "properties": {
        "norad_id": 37836,
        "name": "EUTELSAT 16A",
        "group": "eutelsat",
        "lat": 0.05758988273309554,
        "lon": 48.33933285464314,
        "alt_km": 35806.85382720403,
        "timestamp": "2025-12-10T20:49:52.232189+00:00",
        "meta_object_name": "EUTELSAT 16A",
        "meta_object_id": "2011-057A",
        "meta_epoch": "2025-12-10T06:13:38.752320",
        "meta_mean_motion": 1.00271332,
        "meta_eccentricity": 0.0005972,
        "meta_inclination": 0.0586,
        "meta_ra_of_asc_node": 3.873,
        "meta_arg_of_pericenter": 259.4476,
        "meta_mean_anomaly": 285.3275,
        "meta_ephemeris_type": 0,
        "meta_classification_type": "U",
        "meta_norad_cat_id": 37836,
        "meta_element_set_no": 999,
        "meta_rev_at_epoch": 543,
        "meta_bstar": 0,
        "meta_mean_motion_dot": 1.07e-06,
        "meta_mean_motion_ddot": 0,
        "tle_line1": "1 37836U 11057A   25344.25947630  .00000107  00000+0  00000+0 0  9991",
        "tle_line2": "2 37836   0.0586   3.8730 0005972 259.4476 285.3275  1.00271332  5432"
      },
      "geometry": {
        "type": "Point",
        "coordinates": [
          48.33933285464314,
          0.05758988273309554
        ]
      }
    },
    {
      "type": "Feature",
      "properties": {
        "norad_id": 38992,
        "name": "EUTELSAT 21B",
        "group": "eutelsat",
        "lat": 0.07071754627931602,
        "lon": 53.917669654833084,
        "alt_km": 35797.60597302123,
        "timestamp": "2025-12-10T20:49:52.232201+00:00",
        "meta_object_name": "EUTELSAT 21B",
        "meta_object_id": "2012-062B",
        "meta_epoch": "2025-12-10T06:13:38.752320",
        "meta_mean_motion": 1.00271386,
        "meta_eccentricity": 0.000329,
        "meta_inclination": 0.0664,
        "meta_ra_of_asc_node": 0.5578,
        "meta_arg_of_pericenter": 267.7897,
        "meta_mean_anomaly": 285.8968,
        "meta_ephemeris_type": 0,
        "meta_classification_type": "U",
        "meta_norad_cat_id": 38992,
        "meta_element_set_no": 999,
        "meta_rev_at_epoch": 4793,
        "meta_bstar": 0,
        "meta_mean_motion_dot": 1.33e-06,
        "meta_mean_motion_ddot": 0,
        "tle_line1": "1 38992U 12062B   25344.25947630  .00000133  00000+0  00000+0 0  9991",
        "tle_line2": "2 38992   0.0664   0.5578 0003290 267.7897 285.8968  1.00271386 47931"
      },
      "geometry": {
        "type": "Point",
        "coordinates": [
          53.917669654833084,
          0.07071754627931602
        ]
      }
    },
    {
      "type": "Feature",
      "properties": {
        "norad_id": 39020,
        "name": "EUTELSAT 70B",
        "group": "eutelsat",
        "lat": 0.06934518857144825,
        "lon": 102.7900366900828,
        "alt_km": 35800.51804191957,
        "timestamp": "2025-12-10T20:49:52.232213+00:00",
        "meta_object_name": "EUTELSAT 70B",
        "meta_object_id": "2012-069A",
        "meta_epoch": "2025-12-10T08:41:38.596992",
        "meta_mean_motion": 1.00271755,
        "meta_eccentricity": 0.00043584,
        "meta_inclination": 0.0637,
        "meta_ra_of_asc_node": 340.391,
        "meta_arg_of_pericenter": 263.8653,
        "meta_mean_anomaly": 36.0131,
        "meta_ephemeris_type": 0,
        "meta_classification_type": "U",
        "meta_norad_cat_id": 39020,
        "meta_element_set_no": 999,
        "meta_rev_at_epoch": 4761,
        "meta_bstar": 0,
        "meta_mean_motion_dot": -4e-07,
        "meta_mean_motion_ddot": 0,
        "tle_line1": "1 39020U 12069A   25344.36225228 -.00000040  00000+0  00000+0 0  9993",
        "tle_line2": "2 39020   0.0637 340.3910 0004358 263.8653  36.0131  1.00271755 47615"
      },
      "geometry": {
        "type": "Point",
        "coordinates": [
          102.7900366900828,
          0.06934518857144825
        ]
      }
    },
    {
      "type": "Feature",
      "properties": {
        "norad_id": 39122,
        "name": "EUTELSAT 117 WEST A",
        "group": "eutelsat",
        "lat": -0.02946025054358314,
        "lon": -84.49592749727022,
        "alt_km": 35773.84190087709,
        "timestamp": "2025-12-10T20:49:52.232225+00:00",
        "meta_object_name": "EUTELSAT 117 WEST A",
        "meta_object_id": "2013-012A",
        "meta_epoch": "2025-12-10T08:50:38.825088",
        "meta_mean_motion": 1.00270995,
        "meta_eccentricity": 0.00030278,
        "meta_inclination": 0.0124,
        "meta_ra_of_asc_node": 358.5281,
        "meta_arg_of_pericenter": 263.2322,
        "meta_mean_anomaly": 193.4421,
        "meta_ephemeris_type": 0,
        "meta_classification_type": "U",
        "meta_norad_cat_id": 39122,
        "meta_element_set_no": 999,
        "meta_rev_at_epoch": 4654,
        "meta_bstar": 0,
        "meta_mean_motion_dot": -9e-08,
        "meta_mean_motion_ddot": 0,
        "tle_line1": "1 39122U 13012A   25344.36850492 -.00000009  00000+0  00000+0 0  9997",
        "tle_line2": "2 39122   0.0124 358.5281 0003027 263.2322 193.4421  1.00270995 46546"
      },
      "geometry": {
        "type": "Point",
        "coordinates": [
          -84.49592749727022,
          -0.02946025054358314
        ]
      }
    },
    {
      "type": "Feature",
      "properties": {
        "norad_id": 39163,
        "name": "EUTELSAT 7B",
        "group": "eutelsat",
        "lat": 0.04262700779812278,
        "lon": 39.343034213351956,
        "alt_km": 35783.99705701133,
        "timestamp": "2025-12-10T20:49:52.232237+00:00",
        "meta_object_name": "EUTELSAT 7B",
        "meta_object_id": "2013-022A",
        "meta_epoch": "2025-12-10T06:21:38.695680",
        "meta_mean_motion": 1.00272011,
        "meta_eccentricity": 0.00045881,
        "meta_inclination": 0.0716,
        "meta_ra_of_asc_node": 16.4121,
        "meta_arg_of_pericenter": 298.9676,
        "meta_mean_anomaly": 226.2631,
        "meta_ephemeris_type": 0,
        "meta_classification_type": "U",
        "meta_norad_cat_id": 39163,
        "meta_element_set_no": 999,
        "meta_rev_at_epoch": 4606,
        "meta_bstar": 0,
        "meta_mean_motion_dot": 5.1e-07,
        "meta_mean_motion_ddot": 0,
        "tle_line1": "1 39163U 13022A   25344.26503120  .00000051  00000+0  00000+0 0  9991",
        "tle_line2": "2 39163   0.0716  16.4121 0004588 298.9676 226.2631  1.00272011 46067"
      },
      "geometry": {
        "type": "Point",
        "coordinates": [
          39.343034213351956,
          0.04262700779812278
        ]
      }
    },
    {
      "type": "Feature",
      "properties": {
        "norad_id": 39612,
        "name": "EXPRESS-AT1",
        "group": "eutelsat",
        "lat": 0.018296790994430195,
        "lon": 88.28689315702975,
        "alt_km": 35787.391114620375,
        "timestamp": "2025-12-10T20:49:52.232250+00:00",
        "meta_object_name": "EXPRESS-AT1",
        "meta_object_id": "2014-010A",
        "meta_epoch": "2025-12-10T12:40:38.892288",
        "meta_mean_motion": 1.00270745,
        "meta_eccentricity": 5.265e-05,
        "meta_inclination": 0.0127,
        "meta_ra_of_asc_node": 295.3549,
        "meta_arg_of_pericenter": 270.9532,
        "meta_mean_anomaly": 119.3483,
        "meta_ephemeris_type": 0,
        "meta_classification_type": "U",
        "meta_norad_cat_id": 39612,
        "meta_element_set_no": 999,
        "meta_rev_at_epoch": 4292,
        "meta_bstar": 0,
        "meta_mean_motion_dot": 8.3e-07,
        "meta_mean_motion_ddot": 0,
        "tle_line1": "1 39612U 14010A   25344.52822792  .00000083  00000+0  00000+0 0  9991",
        "tle_line2": "2 39612   0.0127 295.3549 0000526 270.9532 119.3483  1.00270745 42923"
      },
      "geometry": {
        "type": "Point",
        "coordinates": [
          88.28689315702975,
          0.018296790994430195
        ]
      }
    },
    {
      "type": "Feature",
      "properties": {
        "norad_id": 39613,
        "name": "EXPRESS-AT2",
        "group": "eutelsat",
        "lat": -0.007363005059530896,
        "lon": 172.14677484649562,
        "alt_km": 35790.208531067525,
        "timestamp": "2025-12-10T20:49:52.232262+00:00",
        "meta_object_name": "EXPRESS-AT2",
        "meta_object_id": "2014-010B",
        "meta_epoch": "2025-12-10T12:49:38.623584",
        "meta_mean_motion": 1.00269643,
        "meta_eccentricity": 0.00015253,
        "meta_inclination": 0.0161,
        "meta_ra_of_asc_node": 340.0718,
        "meta_arg_of_pericenter": 315.08,
        "meta_mean_anomaly": 116.6304,
        "meta_ephemeris_type": 0,
        "meta_classification_type": "U",
        "meta_norad_cat_id": 39613,
        "meta_element_set_no": 999,
        "meta_rev_at_epoch": 4260,
        "meta_bstar": 0,
        "meta_mean_motion_dot": 0,
        "meta_mean_motion_ddot": 0,
        "tle_line1": "1 39613U 14010B   25344.53447481  .00000000  00000+0  00000+0 0  9990",
        "tle_line2": "2 39613   0.0161 340.0718 0001525 315.0800 116.6304  1.00269643 42609"
      },
      "geometry": {
        "type": "Point",
        "coordinates": [
          172.14677484649562,
          -0.007363005059530896
        ]
      }
    }
  ]
}